start=new Date('2022-04-27T00:00:00.000Z').valueOf();
sats=[{"PERIOD":"92.726","ARG_OF_PERICENTER":"29.6242","NORAD_CAT_ID":"51777","TLE_LINE1":"1 51777U 22017K   22116.91667824 -.00713454  00000-0 -12303-1 0  9990","MEAN_ELEMENT_THEORY":"SGP4","GP_ID":"202113817","OBJECT_NAME":"STARLINK-3625","OBJECT_TYPE":"PAYLOAD","REV_AT_EPOCH":"367","MEAN_MOTION":"15.52970052","TLE_LINE2":"2 51777  53.2173 206.2532 0001931  29.6242  99.4130 15.52970052  3677","MEAN_MOTION_DOT":"-0.00713454","EPHEMERIS_TYPE":"0","MEAN_MOTION_DDOT":"0.0000000000000","EPOCH":"2022-04-26T22:00:00.999936","DECAY_DATE":null,"SEMIMAJOR_AXIS":"6786.197","TIME_SYSTEM":"UTC","CENTER_NAME":"EARTH","SITE":"AFWTR","OBJECT_ID":"2022-017K","ECCENTRICITY":"0.00019310","MEAN_ANOMALY":"99.4130","LAUNCH_DATE":"2022-02-25","FILE":"3417474","APOAPSIS":"409.372","BSTAR":"-0.01230300000000","INCLINATION":"53.2173","RA_OF_ASC_NODE":"206.2532","ELEMENT_SET_NO":"999","REF_FRAME":"TEME","RCS_SIZE":"LARGE","CLASSIFICATION_TYPE":"U","PERIAPSIS":"406.751","COUNTRY_CODE":"US"},{"REF_FRAME":"TEME","PERIAPSIS":"348.118","COUNTRY_CODE":"US","CLASSIFICATION_TYPE":"U","RCS_SIZE":"LARGE","ELEMENT_SET_NO":"999","RA_OF_ASC_NODE":"204.9937","LAUNCH_DATE":"2022-02-25","MEAN_ANOMALY":"49.3967","ECCENTRICITY":"0.00028680","OBJECT_ID":"2022-017L","BSTAR":"0.00010639000000","INCLINATION":"53.2171","APOAPSIS":"351.977","FILE":"3417474","CENTER_NAME":"EARTH","SITE":"AFWTR","EPOCH":"2022-04-26T22:00:00.999936","TIME_SYSTEM":"UTC","SEMIMAJOR_AXIS":"6728.182","DECAY_DATE":null,"MEAN_MOTION_DOT":"0.00014273","MEAN_MOTION_DDOT":"0.0000000000000","EPHEMERIS_TYPE":"0","OBJECT_TYPE":"PAYLOAD","OBJECT_NAME":"STARLINK-3615","TLE_LINE2":"2 51778  53.2171 204.9937 0002868  16.1605  49.3967 15.73099338  3678","MEAN_MOTION":"15.73099338","REV_AT_EPOCH":"367","TLE_LINE1":"1 51778U 22017L   22116.91667824  .00014273  00000-0  10639-3 0  9994","NORAD_CAT_ID":"51778","ARG_OF_PERICENTER":"16.1605","PERIOD":"91.539","MEAN_ELEMENT_THEORY":"SGP4","GP_ID":"202113656"},{"NORAD_CAT_ID":"51779","TLE_LINE1":"1 51779U 22017M   22116.91667824 -.00714002  00000-0 -12307-1 0  9996","ARG_OF_PERICENTER":"29.1430","PERIOD":"92.725","GP_ID":"202113401","MEAN_ELEMENT_THEORY":"SGP4","OBJECT_TYPE":"PAYLOAD","OBJECT_NAME":"STARLINK-3611","TLE_LINE2":"2 51779  53.2173 206.2861 0002005  29.1430 102.4117 15.52983504  3677","MEAN_MOTION":"15.52983504","REV_AT_EPOCH":"367","MEAN_MOTION_DOT":"-0.00714002","MEAN_MOTION_DDOT":"0.0000000000000","EPHEMERIS_TYPE":"0","EPOCH":"2022-04-26T22:00:00.999936","TIME_SYSTEM":"UTC","SEMIMAJOR_AXIS":"6786.158","DECAY_DATE":null,"CENTER_NAME":"EARTH","SITE":"AFWTR","LAUNCH_DATE":"2022-02-25","ECCENTRICITY":"0.00020050","MEAN_ANOMALY":"102.4117","OBJECT_ID":"2022-017M","BSTAR":"-0.01230700000000","INCLINATION":"53.2173","APOAPSIS":"409.383","FILE":"3417474","ELEMENT_SET_NO":"999","RA_OF_ASC_NODE":"206.2861","REF_FRAME":"TEME","COUNTRY_CODE":"US","PERIAPSIS":"406.662","CLASSIFICATION_TYPE":"U","RCS_SIZE":"LARGE"},{"TIME_SYSTEM":"UTC","SEMIMAJOR_AXIS":"6786.133","DECAY_DATE":null,"EPOCH":"2022-04-26T22:00:00.999936","EPHEMERIS_TYPE":"0","MEAN_MOTION_DDOT":"0.0000000000000","MEAN_MOTION_DOT":"-0.00713627","TLE_LINE2":"2 51780  53.2173 206.3149 0002033  27.9089 106.6012 15.52992078  3672","MEAN_MOTION":"15.52992078","REV_AT_EPOCH":"367","OBJECT_TYPE":"PAYLOAD","OBJECT_NAME":"STARLINK-3617","GP_ID":"202113569","MEAN_ELEMENT_THEORY":"SGP4","NORAD_CAT_ID":"51780","TLE_LINE1":"1 51780U 22017N   22116.91667824 -.00713627  00000-0 -12296-1 0  9997","ARG_OF_PERICENTER":"27.9089","PERIOD":"92.724","PERIAPSIS":"406.618","COUNTRY_CODE":"US","RCS_SIZE":"LARGE","CLASSIFICATION_TYPE":"U","REF_FRAME":"TEME","ELEMENT_SET_NO":"999","RA_OF_ASC_NODE":"206.3149","INCLINATION":"53.2173","BSTAR":"-0.01229600000000","APOAPSIS":"409.377","FILE":"3417474","LAUNCH_DATE":"2022-02-25","ECCENTRICITY":"0.00020330","MEAN_ANOMALY":"106.6012","OBJECT_ID":"2022-017N","SITE":"AFWTR","CENTER_NAME":"EARTH"},{"EPOCH":"2022-04-26T22:00:00.999936","SEMIMAJOR_AXIS":"6786.146","DECAY_DATE":null,"TIME_SYSTEM":"UTC","MEAN_MOTION_DOT":"-0.00713489","MEAN_MOTION_DDOT":"0.0000000000000","EPHEMERIS_TYPE":"0","OBJECT_NAME":"STARLINK-3580","OBJECT_TYPE":"PAYLOAD","MEAN_MOTION":"15.52987543","REV_AT_EPOCH":"367","TLE_LINE2":"2 51781  53.2173 206.2971 0002150  25.7319 106.6620 15.52987543  3673","TLE_LINE1":"1 51781U 22017P   22116.91667824 -.00713489  00000-0 -12295-1 0  9993","NORAD_CAT_ID":"51781","PERIOD":"92.725","ARG_OF_PERICENTER":"25.7319","MEAN_ELEMENT_THEORY":"SGP4","GP_ID":"202113487","REF_FRAME":"TEME","COUNTRY_CODE":"US","PERIAPSIS":"406.552","CLASSIFICATION_TYPE":"U","RCS_SIZE":"LARGE","RA_OF_ASC_NODE":"206.2971","ELEMENT_SET_NO":"999","OBJECT_ID":"2022-017P","LAUNCH_DATE":"2022-02-25","MEAN_ANOMALY":"106.6620","ECCENTRICITY":"0.00021500","APOAPSIS":"409.470","FILE":"3417474","INCLINATION":"53.2173","BSTAR":"-0.01229500000000","CENTER_NAME":"EARTH","SITE":"AFWTR"},{"SITE":"AFWTR","CENTER_NAME":"EARTH","BSTAR":"-0.03088800000000","INCLINATION":"53.2172","APOAPSIS":"492.502","FILE":"3417474","LAUNCH_DATE":"2022-02-25","ECCENTRICITY":"0.00017440","MEAN_ANOMALY":"109.0349","OBJECT_ID":"2022-017Q","ELEMENT_SET_NO":"999","RA_OF_ASC_NODE":"211.9154","PERIAPSIS":"490.106","COUNTRY_CODE":"US","CLASSIFICATION_TYPE":"U","RCS_SIZE":"LARGE","REF_FRAME":"TEME","GP_ID":"202113986","MEAN_ELEMENT_THEORY":"SGP4","TLE_LINE1":"1 51782U 22017Q   22116.91667824 -.00724485  00000-0 -30888-1 0  9990","NORAD_CAT_ID":"51782","PERIOD":"94.437","ARG_OF_PERICENTER":"43.1611","TLE_LINE2":"2 51782  53.2172 211.9154 0001744  43.1611 109.0349 15.24827852  3632","MEAN_MOTION":"15.24827852","REV_AT_EPOCH":"363","OBJECT_TYPE":"PAYLOAD","OBJECT_NAME":"STARLINK-3616","EPHEMERIS_TYPE":"0","MEAN_MOTION_DDOT":"0.0000000000000","MEAN_MOTION_DOT":"-0.00724485","TIME_SYSTEM":"UTC","SEMIMAJOR_AXIS":"6869.439","DECAY_DATE":null,"EPOCH":"2022-04-26T22:00:00.999936"},{"DECAY_DATE":null,"SEMIMAJOR_AXIS":"6786.145","TIME_SYSTEM":"UTC","EPOCH":"2022-04-26T22:00:00.999936","EPHEMERIS_TYPE":"0","MEAN_MOTION_DDOT":"0.0000000000000","MEAN_MOTION_DOT":"-0.00713554","REV_AT_EPOCH":"367","MEAN_MOTION":"15.52987751","TLE_LINE2":"2 51783  53.2173 206.3072 0001916  31.2364 102.4345 15.52987751  3678","OBJECT_NAME":"STARLINK-3628","OBJECT_TYPE":"PAYLOAD","GP_ID":"202113733","MEAN_ELEMENT_THEORY":"SGP4","PERIOD":"92.724","ARG_OF_PERICENTER":"31.2364","NORAD_CAT_ID":"51783","TLE_LINE1":"1 51783U 22017R   22116.91667824 -.00713554  00000-0 -12297-1 0  9990","CLASSIFICATION_TYPE":"U","RCS_SIZE":"LARGE","COUNTRY_CODE":"US","PERIAPSIS":"406.710","REF_FRAME":"TEME","RA_OF_ASC_NODE":"206.3072","ELEMENT_SET_NO":"999","APOAPSIS":"409.311","FILE":"3417474","INCLINATION":"53.2173","BSTAR":"-0.01229700000000","OBJECT_ID":"2022-017R","MEAN_ANOMALY":"102.4345","ECCENTRICITY":"0.00019160","LAUNCH_DATE":"2022-02-25","SITE":"AFWTR","CENTER_NAME":"EARTH"},{"MEAN_ELEMENT_THEORY":"SGP4","GP_ID":"202113900","PERIOD":"94.429","ARG_OF_PERICENTER":"32.7366","TLE_LINE1":"1 51784U 22017S   22116.91667824 -.00724632  00000-0 -30774-1 0  9990","NORAD_CAT_ID":"51784","REV_AT_EPOCH":"363","MEAN_MOTION":"15.24955750","TLE_LINE2":"2 51784  53.2172 211.9155 0002087  32.7366 134.6311 15.24955750  3639","OBJECT_NAME":"STARLINK-3632","OBJECT_TYPE":"PAYLOAD","MEAN_MOTION_DDOT":"0.0000000000000","EPHEMERIS_TYPE":"0","MEAN_MOTION_DOT":"-0.00724632","DECAY_DATE":null,"SEMIMAJOR_AXIS":"6869.055","TIME_SYSTEM":"UTC","EPOCH":"2022-04-26T22:00:00.999936","SITE":"AFWTR","CENTER_NAME":"EARTH","APOAPSIS":"492.354","FILE":"3417474","BSTAR":"-0.03077400000000","INCLINATION":"53.2172","OBJECT_ID":"2022-017S","ECCENTRICITY":"0.00020870","MEAN_ANOMALY":"134.6311","LAUNCH_DATE":"2022-02-25","RA_OF_ASC_NODE":"211.9155","ELEMENT_SET_NO":"999","CLASSIFICATION_TYPE":"U","RCS_SIZE":"LARGE","PERIAPSIS":"489.487","COUNTRY_CODE":"US","REF_FRAME":"TEME"},{"GP_ID":"202113818","MEAN_ELEMENT_THEORY":"SGP4","TLE_LINE1":"1 51785U 22017T   22116.91667824 -.00713646  00000-0 -12294-1 0  9991","NORAD_CAT_ID":"51785","PERIOD":"92.724","ARG_OF_PERICENTER":"25.2804","MEAN_MOTION":"15.52996341","REV_AT_EPOCH":"367","TLE_LINE2":"2 51785  53.2173 206.3165 0002154  25.2804 110.0688 15.52996341  3670","OBJECT_NAME":"STARLINK-3646","OBJECT_TYPE":"PAYLOAD","MEAN_MOTION_DDOT":"0.0000000000000","EPHEMERIS_TYPE":"0","MEAN_MOTION_DOT":"-0.00713646","SEMIMAJOR_AXIS":"6786.120","DECAY_DATE":null,"TIME_SYSTEM":"UTC","EPOCH":"2022-04-26T22:00:00.999936","SITE":"AFWTR","CENTER_NAME":"EARTH","FILE":"3417474","APOAPSIS":"409.447","INCLINATION":"53.2173","BSTAR":"-0.01229400000000","OBJECT_ID":"2022-017T","LAUNCH_DATE":"2022-02-25","MEAN_ANOMALY":"110.0688","ECCENTRICITY":"0.00021540","RA_OF_ASC_NODE":"206.3165","ELEMENT_SET_NO":"999","PERIAPSIS":"406.524","COUNTRY_CODE":"US","RCS_SIZE":"LARGE","CLASSIFICATION_TYPE":"U","REF_FRAME":"TEME"},{"MEAN_MOTION_DDOT":"0.0000000000000","EPHEMERIS_TYPE":"0","MEAN_MOTION_DOT":"-0.00725431","TIME_SYSTEM":"UTC","DECAY_DATE":null,"SEMIMAJOR_AXIS":"6868.286","EPOCH":"2022-04-26T22:00:00.999936","GP_ID":"202113657","MEAN_ELEMENT_THEORY":"SGP4","ARG_OF_PERICENTER":"43.1120","PERIOD":"94.413","NORAD_CAT_ID":"51786","TLE_LINE1":"1 51786U 22017U   22116.91667824 -.00725431  00000-0 -30575-1 0  9999","TLE_LINE2":"2 51786  53.2172 211.9154 0001784  43.1120 154.4839 15.25211811  3636","REV_AT_EPOCH":"363","MEAN_MOTION":"15.25211811","OBJECT_TYPE":"PAYLOAD","OBJECT_NAME":"STARLINK-3638","ELEMENT_SET_NO":"999","RA_OF_ASC_NODE":"211.9154","CLASSIFICATION_TYPE":"U","RCS_SIZE":"LARGE","PERIAPSIS":"488.926","COUNTRY_CODE":"US","REF_FRAME":"TEME","SITE":"AFWTR","CENTER_NAME":"EARTH","INCLINATION":"53.2172","BSTAR":"-0.03057500000000","FILE":"3417474","APOAPSIS":"491.377","ECCENTRICITY":"0.00017840","MEAN_ANOMALY":"154.4839","LAUNCH_DATE":"2022-02-25","OBJECT_ID":"2022-017U"}];
